NORAD_CAT_ID,OBJECT_NAME,OBJECT_TYPE,EPOCH,MEAN_MOTION,ECCENTRICITY,INCLINATION,RA_OF_ASC_NODE,ARG_OF_PERICENTER,MEAN_ANOMALY,BSTAR,MEAN_MOTION_DOT,MEAN_MOTION_DDOT,TLE_LINE0,TLE_LINE1,TLE_LINE2,SEMIMAJOR_AXIS,PERIOD,APOGEE,PERIGEE,DECAYED
53273.0,STARLINK-4051,PAYLOAD,2022-09-29 14:00:01,15.57716388,0.0001301,53.2171,71.8443,51.1694,252.1684,-0.015982,-0.01094311,0.0,0 STARLINK-4051,1 53273U 22086AH  22272.58334491 -.01094311  00000-0 -15982-1 0  9997,2 53273  53.2171  71.8443 0001301  51.1694 252.1684 15.57716388  1302,6772.405,92.443,395.151,393.389,0.0
53273.0,STARLINK-4051,PAYLOAD,2022-09-29 22:00:00,15.56935952,0.000154,53.217,70.2335,34.7979,338.3797,-0.01599,-0.0106597,0.0,0 STARLINK-4051,1 53273U 22086AH  22272.91667824 -.01065970  00000-0 -15990-1 0  9991,2 53273  53.2170  70.2335 0001540  34.7979 338.3797 15.56935952  1303,6774.668000000002,92.489,397.576,395.49,0.0
53273.0,STARLINK-4051,PAYLOAD,2022-09-30 14:00:01,15.55427964,0.0001649,53.2174,67.0116,39.3496,110.7471,-0.017185,-0.01081353,0.0,0 STARLINK-4051,1 53273U 22086AH  22273.58334491 -.01081353  00000-0 -17185-1 0  9997,2 53273  53.2174  67.0116 0001649  39.3496 110.7471 15.55427964  1302,6779.045999999999,92.579,402.029,399.793,0.0
53273.0,STARLINK-4051,PAYLOAD,2022-09-30 16:00:00,15.55220819,0.0001565999999999,53.2175,66.6097,40.3327,216.6308,-0.016898,-0.01057461,0.0,0 STARLINK-4051,1 53273U 22086AH  22273.66667824 -.01057461  00000-0 -16898-1 0  9998,2 53273  53.2175  66.6097 0001566  40.3327 216.6308 15.55220819 11349,6779.648,92.591,402.575,400.451,0.0
53273.0,STARLINK-4051,PAYLOAD,2022-09-30 22:00:00,15.54643553,0.0001703,53.2172,65.4057,40.1884,177.0114,-0.017055,-0.01045892,0.0,0 STARLINK-4051,1 53273U 22086AH  22273.91667824 -.01045892  00000-0 -17055-1 0  9997,2 53273  53.2172  65.4057 0001703  40.1884 177.0114 15.54643553  1301,6781.326,92.626,404.346,402.036,0.0
53273.0,STARLINK-4051,PAYLOAD,2022-10-01 14:00:01,15.53148148,0.0001385,53.2173,62.1953,42.8335,305.803,-0.018644,-0.01078838,0.0,0 STARLINK-4051,1 53273U 22086AH  22274.58334491 -.01078838  00000-0 -18644-1 0  9993,2 53273  53.2173  62.1953 0001385  42.8335 305.8030 15.53148148 11495,6785.678000000001,92.715,408.483,406.603,0.0
53273.0,STARLINK-4051,PAYLOAD,2022-10-01 22:00:00,15.52384576,0.0001716,53.2168,60.595,31.5482,21.4432,-0.019027,-0.01071643,0.0,0 STARLINK-4051,1 53273U 22086AH  22274.91667824 -.01071643  00000-0 -19027-1 0  9992,2 53273  53.2168  60.5950 0001716  31.5482  21.4432 15.52384576  1306,6787.903,92.761,410.9330000000001,408.603,0.0
53273.0,STARLINK-4051,PAYLOAD,2022-10-02 14:00:01,15.50775751,0.0001715,53.2172,57.3959,40.2753,138.7066,-0.015822,-0.00846824,0.0,0 STARLINK-4051,1 53273U 22086AH  22275.58334491 -.00846824  00000-0 -15822-1 0  9996,2 53273  53.2172  57.3959 0001715  40.2753 138.7066 15.50775751  1303,6792.597,92.857,415.627,413.297,0.0
53273.0,STARLINK-4051,PAYLOAD,2022-10-02 22:00:00,15.50068274,0.0002020999999999,53.2169,55.8019,34.3487,206.2487,-0.0049131,-0.00271635,0.0,0 STARLINK-4051,1 53273U 22086AH  22275.91667824 -.00271635  00000-0 -49131-2 0  9995,2 53273  53.2169  55.8019 0002021  34.3487 206.2487 15.50068274 11694,6794.6640000000025,92.899,417.902,415.155,0.0
53273.0,STARLINK-4051,PAYLOAD,2022-10-03 06:00:00,15.49883194,0.0001605,53.2173,54.2053,40.4544,261.1565,7.4465e-05,3.776e-05,0.0,0 STARLINK-4051,1 53273U 22086AH  22276.25001157  .00003776  00000-0  74465-4 0  9991,2 53273  53.2173  54.2053 0001605  40.4544 261.1565 15.49883194 11746,6795.204000000002,92.91,418.16,415.979,0.0
53273.0,STARLINK-4051,PAYLOAD,2022-10-03 14:00:01,15.49886009,0.0001714,53.2175,52.6135,40.4839,322.0395,-1.3458e-05,-1.216e-05,0.0,0 STARLINK-4051,1 53273U 22086AH  22276.58334491 -.00001216  00000-0 -13458-4 0  9991,2 53273  53.2175  52.6135 0001714  40.4839 322.0395 15.49886009  1306,6795.196,92.91,418.226,415.897,0.0
53273.0,STARLINK-4051,PAYLOAD,2022-10-03 22:00:00,15.49898347,0.0002195999999999,53.2168,51.0287,36.0778,27.4246,0.0005752999999999,0.00032351,0.0,0 STARLINK-4051,1 53273U 22086AH  22276.91667824  .00032351  00000-0  57530-3 0  9997,2 53273  53.2168  51.0287 0002196  36.0778  27.4246 15.49898347 11857,6795.16,92.909,418.517,415.533,0.0
53273.0,STARLINK-4051,PAYLOAD,2022-10-04 14:00:01,15.50098284,0.0001831999999999,53.2174,47.8364,38.1109,147.2557,-0.013559,-0.00718374,0.0,0 STARLINK-4051,1 53273U 22086AH  22277.58334491 -.00718374  00000-0 -13559-1 0  9991,2 53273  53.2174  47.8364 0001832  38.1109 147.2557 15.50098284  1309,6794.576,92.897,417.686,415.196,0.0
53273.0,STARLINK-4051,PAYLOAD,2022-10-04 16:00:00,15.49951124,0.0001807,53.2175,47.438,40.414,250.2219,-0.011892,-0.00625558,0.0,0 STARLINK-4051,1 53273U 22086AH  22277.66667824 -.00625558  00000-0 -11892-1 0  9998,2 53273  53.2175  47.4380 0001807  40.4140 250.2219 15.49951124 11969,6795.005999999999,92.906,418.099,415.643,0.0
53273.0,STARLINK-4051,PAYLOAD,2022-10-04 22:00:00,15.49725259,0.000182,53.2172,46.2392,32.5158,213.6773,-0.015358,-0.00796164,0.0,0 STARLINK-4051,1 53273U 22086AH  22277.91667824 -.00796164  00000-0 -15358-1 0  9999,2 53273  53.2172  46.2392 0001820  32.5158 213.6773 15.49725259  1305,6795.666,92.92,418.768,416.294,0.0
53273.0,STARLINK-4051,PAYLOAD,2022-10-05 06:00:00,15.49146678,0.0001747,53.2172,44.6437,30.7324,275.8521,-0.021036,-0.01056412,0.0,0 STARLINK-4051,1 53273U 22086AH  22278.25001157 -.01056412  00000-0 -21036-1 0  9994,2 53273  53.2172  44.6437 0001747  30.7324 275.8521 15.49146678 12057,6797.358,92.954,420.411,418.036,0.0
53273.0,STARLINK-4051,PAYLOAD,2022-10-05 14:00:01,15.48389491,0.0001905,53.2173,43.0529,26.7998,339.4122,-0.021676,-0.01059545,0.0,0 STARLINK-4051,1 53273U 22086AH  22278.58335648 -.01059545  00000-0 -21676-1 0  9995,2 53273  53.2173  43.0529 0001905  26.7998 339.4122 15.48389491  1302,6799.574000000001,93.0,422.734,420.144,0.0
53273.0,STARLINK-4051,PAYLOAD,2022-10-05 22:00:00,15.47629347,0.0002015,53.2171,41.4627,25.2858,39.5141,-0.022224,-0.01057892,0.0,0 STARLINK-4051,1 53273U 22086AH  22278.91667824 -.01057892  00000-0 -22224-1 0  9999,2 53273  53.2171  41.4627 0002015  25.2858  39.5141 15.47629347  1308,6801.8,93.046,425.036,422.295,0.0
53273.0,STARLINK-4051,PAYLOAD,2022-10-06 14:00:01,15.46108476,0.0001693,53.2171,38.2872,45.1705,134.1969,-0.023371,-0.01055214,0.0,0 STARLINK-4051,1 53273U 22086AH  22279.58334491 -.01055214  00000-0 -23371-1 0  9994,2 53273  53.2171  38.2872 0001693  45.1705 134.1969 15.46108476  1301,6806.26,93.137,429.277,426.973,0.0
53273.0,STARLINK-4051,PAYLOAD,2022-10-06 22:42:55,15.45287242,0.0001616,53.2169,36.5614,38.19300000000001,2.9136,-0.024262,-0.01063877,0.0,0 STARLINK-4051,1 53273U 22086AH  22279.94646991 -.01063877  00000-0 -24262-1 0  9999,2 53273  53.2169  36.5614 0001616  38.1930   2.9136 15.45287242  1306,6808.670999999999,93.187,431.636,429.436,0.0
53273.0,STARLINK-4051,PAYLOAD,2022-10-07 00:00:00,15.45162261,0.000148,53.2171,36.3061,40.62,298.4968,-0.024278,-0.01060324,0.0,0 STARLINK-4051,1 53273U 22086AH  22280.00001157 -.01060324  00000-0 -24278-1 0  9998,2 53273  53.2171  36.3061 0001480  40.6200 298.4968 15.45162261 12333,6809.038000000001,93.194,431.911,429.896,0.0
53273.0,STARLINK-4051,PAYLOAD,2022-10-07 14:00:01,15.43837857,0.0001375999999999,53.2173,33.5386,49.8249,294.5434,-0.025554,-0.01080944,0.0,0 STARLINK-4051,1 53273U 22086AH  22280.58334491 -.01080944  00000-0 -25554-1 0  9999,2 53273  53.2173  33.5386 0001376  49.8249 294.5434 15.43837857  1300,6812.932,93.274,435.734,433.859,0.0
53273.0,STARLINK-4051,PAYLOAD,2022-10-07 22:00:00,15.43087042,0.0001601,53.217,31.9591,35.0283,2.5122,-0.026521,-0.01092607,0.0,0 STARLINK-4051,1 53273U 22086AH  22280.91667824 -.01092607  00000-0 -26521-1 0  9999,2 53273  53.2170  31.9591 0001601  35.0283   2.5122 15.43087042 12477,6815.142,93.319,438.098,435.916,0.0
53273.0,STARLINK-4051,PAYLOAD,2022-10-08 14:00:01,15.41576301,0.0001641,53.2175,28.806,47.9838,93.1672,-0.028229,-0.01104163,0.0,0 STARLINK-4051,1 53273U 22086AH  22281.58334491 -.01104163  00000-0 -28229-1 0  9992,2 53273  53.2175  28.8060 0001641  47.9838  93.1672 15.41576301  1305,6819.594,93.411,442.578,440.339,0.0
53273.0,STARLINK-4051,PAYLOAD,2022-10-08 22:00:00,15.40790476,0.0001701,53.2171,27.2309,41.3772,150.225,-0.027919,-0.01066916,0.0,0 STARLINK-4051,1 53273U 22086AH  22281.91667824 -.01066916  00000-0 -27919-1 0  9996,2 53273  53.2171  27.2309 0001701  41.3772 150.2250 15.40790476  1309,6821.9119999999975,93.459,444.937,442.617,0.0
53273.0,STARLINK-4051,PAYLOAD,2022-10-09 06:00:00,15.40032319,0.0001757,53.2175,25.657,39.8297,201.2981,-0.028672,-0.01068279,0.0,0 STARLINK-4051,1 53273U 22086AH  22282.25001157 -.01068279  00000-0 -28672-1 0  9996,2 53273  53.2175  25.6570 0001757  39.8297 201.2981 15.40032319 12675,6824.151,93.505,447.215,444.817,0.0
53273.0,STARLINK-4051,PAYLOAD,2022-10-09 14:00:01,15.39278724,0.0001536,53.2176,24.089,50.5032,239.2337,-0.029656,-0.01076892,0.0,0 STARLINK-4051,1 53273U 22086AH  22282.58334491 -.01076892  00000-0 -29656-1 0  9995,2 53273  53.2176  24.0890 0001536  50.5032 239.2337 15.39278724  1300,6826.378000000002,93.55,449.291,447.194,0.0
53273.0,STARLINK-4051,PAYLOAD,2022-10-09 22:00:00,15.38515675,0.0001406,53.2173,22.5184,46.3186,291.1217,-0.030272,-0.01072329,0.0,0 STARLINK-4051,1 53273U 22086AH  22282.91667824 -.01072329  00000-0 -30272-1 0  9998,2 53273  53.2173  22.5184 0001406  46.3186 291.1217 15.38515675  1307,6828.635,93.597,451.46,449.54,0.0
53273.0,STARLINK-4051,PAYLOAD,2022-10-10 06:00:00,15.37753078,0.0001399,53.2174,20.9503,47.152,337.0775,-0.030857,-0.01066559,0.0,0 STARLINK-4051,1 53273U 22086AH  22283.25001157 -.01066559  00000-0 -30857-1 0  9994,2 53273  53.2174  20.9503 0001399  47.1520 337.0775 15.37753078 12836,6830.892,93.643,453.713,451.802,0.0
